{"type": "FeatureCollection", "features": [ {"type": "Feature", "properties": {"norad_id": 34790, "name": "COSMOS 2251 DEB", "group": "cosmos-2251-debris", "lat": 33.06547689381916, "lon": -124.77523949544282, "alt_km": 832.2809675766666, "timestamp": "2025-12-23T09:49:07.478114+00:00", "meta": {"OBJECT_NAME": "COSMOS 2251 DEB", "OBJECT_ID": "1993-036AAT", "EPOCH": "2025-12-22T09:12:55.155744", "MEAN_MOTION": 14.2466234, "ECCENTRICITY": 0.01005704, "INCLINATION": 74.0529, "RA_OF_ASC_NODE": 226.3418, "ARG_OF_PERICENTER": 285.9399, "MEAN_ANOMALY": 251.9972, "EPHEMERIS_TYPE": 0, "CLASSIFICATION_TYPE": "U", "NORAD_CAT_ID": 34790, "ELEMENT_SET_NO": 999, "REV_AT_EPOCH": 86710, "BSTAR": 0.00052625644, "MEAN_MOTION_DOT": 1.264e-05, "MEAN_MOTION_DDOT": 0}, "tle": {"line1": "1 34790U 93036AAT 25356.38397171  .00001264  00000+0  52626-3 0  9990", "line2": "2 34790  74.0529 226.3418 0100570 285.9399 251.9972 14.24662340867105"}}, "geometry": {"type": "Point", "coordinates": [-124.77523949544282, 33.06547689381916]}}, {"type": "Feature", "properties": {"norad_id": 34792, "name": "COSMOS 2251 DEB", "group": "cosmos-2251-debris", "lat": 68.41259985729172, "lon": -76.95543894590618, "alt_km": 705.60102383108, "timestamp": "2025-12-23T09:49:07.478124+00:00", "meta": {"OBJECT_NAME": "COSMOS 2251 DEB", "OBJECT_ID": "1993-036AAV", "EPOCH": "2025-12-22T04:28:07.603968", "MEAN_MOTION": 14.5602851, "ECCENTRICITY": 0.00123771, "INCLINATION": 74.0175, "RA_OF_ASC_NODE": 151.7792, "ARG_OF_PERICENTER": 246.3273, "MEAN_ANOMALY": 290.8722, "EPHEMERIS_TYPE": 0, "CLASSIFICATION_TYPE": "U", "NORAD_CAT_ID": 34792, "ELEMENT_SET_NO": 999, "REV_AT_EPOCH": 87787, "BSTAR": 0.0010753031, "MEAN_MOTION_DOT": 4.713e-05, "MEAN_MOTION_DDOT": 0}, "tle": {"line1": "1 34792U 93036AAV 25356.18619912  .00004713  00000+0  10753-2 0  9996", "line2": "2 34792  74.0175 151.7792 0012377 246.3273 290.8722 14.56028510877879"}}, "geometry": {"type": "Point", "coordinates": [-76.95543894590618, 68.41259985729172]}}, {"type": "Feature", "properties": {"norad_id": 34793, "name": "COSMOS 2251 DEB", "group": "cosmos-2251-debris", "lat": -58.74858217840287, "lon": -157.55781765396645, "alt_km": 766.2215997449857, "timestamp": "2025-12-23T09:49:07.478134+00:00", "meta": {"OBJECT_NAME": "COSMOS 2251 DEB", "OBJECT_ID": "1993-036AAW", "EPOCH": "2025-12-22T22:30:22.701600", "MEAN_MOTION": 14.38659924, "ECCENTRICITY": 0.00507326, "INCLINATION": 74.0018, "RA_OF_ASC_NODE": 231.5267, "ARG_OF_PERICENTER": 23.0426, "MEAN_ANOMALY": 354.5658, "EPHEMERIS_TYPE": 0, "CLASSIFICATION_TYPE": "U", "NORAD_CAT_ID": 34793, "ELEMENT_SET_NO": 999, "REV_AT_EPOCH": 87477, "BSTAR": 0.00021438541, "MEAN_MOTION_DOT": 6.41e-06, "MEAN_MOTION_DDOT": 0}, "tle": {"line1": "1 34793U 93036AAW 25356.93776275  .00000641  00000+0  21439-3 0  9996", "line2": "2 34793  74.0018 231.5267 0050732  23.0426 354.5658 14.38659924874778"}}, "geometry": {"type": "Point", "coordinates": [-157.55781765396645, -58.74858217840287]}}, {"type": "Feature", "properties": {"norad_id": 34796, "name": "COSMOS 2251 DEB", "group": "cosmos-2251-debris", "lat": 55.35389769102526, "lon": -139.17540972837529, "alt_km": 762.280135448279, "timestamp": "2025-12-23T09:49:07.478144+00:00", "meta": {"OBJECT_NAME": "COSMOS 2251 DEB", "OBJECT_ID": "1993-036AAZ", "EPOCH": "2025-12-22T20:20:24.482112", "MEAN_MOTION": 14.48732964, "ECCENTRICITY": 0.01002856, "INCLINATION": 74.0283, "RA_OF_ASC_NODE": 197.393, "ARG_OF_PERICENTER": 297.2818, "MEAN_ANOMALY": 72.7995, "EPHEMERIS_TYPE": 0, "CLASSIFICATION_TYPE": "U", "NORAD_CAT_ID": 34796, "ELEMENT_SET_NO": 999, "REV_AT_EPOCH": 88174, "BSTAR": 0.00046379791, "MEAN_MOTION_DOT": 1.834e-05, "MEAN_MOTION_DDOT": 0}, "tle": {"line1": "1 34796U 93036AAZ 25356.84750558  .00001834  00000+0  46380-3 0  9992", "line2": "2 34796  74.0283 197.3930 0100285 297.2818  72.7995 14.48732964881745"}}, "geometry": {"type": "Point", "coordinates": [-139.17540972837529, 55.35389769102526]}}, {"type": "Feature", "properties": {"norad_id": 34797, "name": "COSMOS 2251 DEB", "group": "cosmos-2251-debris", "lat": -39.56862042756235, "lon": 66.36965397207824, "alt_km": 784.9273777559656, "timestamp": "2025-12-23T09:49:07.478154+00:00", "meta": {"OBJECT_NAME": "COSMOS 2251 DEB", "OBJECT_ID": "1993-036ABA", "EPOCH": "2025-12-22T12:22:54.757056", "MEAN_MOTION": 14.42950692, "ECCENTRICITY": 0.00710542, "INCLINATION": 73.9783, "RA_OF_ASC_NODE": 81.7691, "ARG_OF_PERICENTER": 193.6898, "MEAN_ANOMALY": 166.2334, "EPHEMERIS_TYPE": 0, "CLASSIFICATION_TYPE": "U", "NORAD_CAT_ID": 34797, "ELEMENT_SET_NO": 999, "REV_AT_EPOCH": 87556, "BSTAR": 0.0021692417, "MEAN_MOTION_DOT": 7.461e-05, "MEAN_MOTION_DDOT": 0}, "tle": {"line1": "1 34797U 93036ABA 25356.51591154  .00007461  00000+0  21692-2 0  9992", "line2": "2 34797  73.9783  81.7691 0071054 193.6898 166.2334 14.42950692875560"}}, "geometry": {"type": "Point", "coordinates": [66.36965397207824, -39.56862042756235]}}, {"type": "Feature", "properties": {"norad_id": 34814, "name": "COSMOS 2251 DEB", "group": "cosmos-2251-debris", "lat": 65.51177024818914, "lon": -14.983333696211059, "alt_km": 782.5393200051494, "timestamp": "2025-12-23T09:49:07.478164+00:00", "meta": {"OBJECT_NAME": "COSMOS 2251 DEB", "OBJECT_ID": "1993-036ABD", "EPOCH": "2025-12-22T07:27:06.710112", "MEAN_MOTION": 14.36931752, "ECCENTRICITY": 0.00555386, "INCLINATION": 73.8962, "RA_OF_ASC_NODE": 307.6876, "ARG_OF_PERICENTER": 195.2249, "MEAN_ANOMALY": 315.8046, "EPHEMERIS_TYPE": 0, "CLASSIFICATION_TYPE": "U", "NORAD_CAT_ID": 34814, "ELEMENT_SET_NO": 999, "REV_AT_EPOCH": 87470, "BSTAR": 0.00068943391, "MEAN_MOTION_DOT": 2.051e-05, "MEAN_MOTION_DDOT": 0}, "tle": {"line1": "1 34814U 93036ABD 25356.31049433  .00002051  00000+0  68943-3 0  9999", "line2": "2 34814  73.8962 307.6876 0055538 195.2249 315.8046 14.36931752874706"}}, "geometry": {"type": "Point", "coordinates": [-14.983333696211059, 65.51177024818914]}}, {"type": "Feature", "properties": {"norad_id": 34815, "name": "COSMOS 2251 DEB", "group": "cosmos-2251-debris", "lat": 17.692488248309864, "lon": -133.91260328938367, "alt_km": 634.8411225348937, "timestamp": "2025-12-23T09:49:07.478175+00:00", "meta": {"OBJECT_NAME": "COSMOS 2251 DEB", "OBJECT_ID": "1993-036ABE", "EPOCH": "2025-12-21T18:45:31.869504", "MEAN_MOTION": 14.78405815, "ECCENTRICITY": 0.00588158, "INCLINATION": 74.044, "RA_OF_ASC_NODE": 224.0458, "ARG_OF_PERICENTER": 291.2324, "MEAN_ANOMALY": 68.2575, "EPHEMERIS_TYPE": 0, "CLASSIFICATION_TYPE": "U", "NORAD_CAT_ID": 34815, "ELEMENT_SET_NO": 999, "REV_AT_EPOCH": 88761, "BSTAR": 0.00055531723, "MEAN_MOTION_DOT": 4.13e-05, "MEAN_MOTION_DDOT": 0}, "tle": {"line1": "1 34815U 93036ABE 25355.78161886  .00004130  00000+0  55532-3 0  9997", "line2": "2 34815  74.0440 224.0458 0058815 291.2324  68.2575 14.78405815887613"}}, "geometry": {"type": "Point", "coordinates": [-133.91260328938367, 17.692488248309864]}}, {"type": "Feature", "properties": {"norad_id": 34816, "name": "COSMOS 2251 DEB", "group": "cosmos-2251-debris", "lat": 38.919637674195876, "lon": 139.2112680447492, "alt_km": 1268.5402606794432, "timestamp": "2025-12-23T09:49:07.478185+00:00", "meta": {"OBJECT_NAME": "COSMOS 2251 DEB", "OBJECT_ID": "1993-036ABF", "EPOCH": "2025-12-21T19:28:23.587968", "MEAN_MOTION": 13.58347113, "ECCENTRICITY": 0.03731163, "INCLINATION": 73.8869, "RA_OF_ASC_NODE": 128.3199, "ARG_OF_PERICENTER": 191.2258, "MEAN_ANOMALY": 321.9512, "EPHEMERIS_TYPE": 0, "CLASSIFICATION_TYPE": "U", "NORAD_CAT_ID": 34816, "ELEMENT_SET_NO": 999, "REV_AT_EPOCH": 82906, "BSTAR": 0.0011150272, "MEAN_MOTION_DOT": 1.255e-05, "MEAN_MOTION_DDOT": 0}, "tle": {"line1": "1 34816U 93036ABF 25355.81138412  .00001255  00000+0  11150-2 0  9993", "line2": "2 34816  73.8869 128.3199 0373116 191.2258 321.9512 13.58347113829061"}}, "geometry": {"type": "Point", "coordinates": [139.2112680447492, 38.919637674195876]}}, {"type": "Feature", "properties": {"norad_id": 34818, "name": "COSMOS 2251 DEB", "group": "cosmos-2251-debris", "lat": 32.85051523430818, "lon": 86.67105122812961, "alt_km": 782.0742175966943, "timestamp": "2025-12-23T09:49:07.478195+00:00", "meta": {"OBJECT_NAME": "COSMOS 2251 DEB", "OBJECT_ID": "1993-036ABH", "EPOCH": "2025-12-22T05:26:11.246784", "MEAN_MOTION": 14.36978109, "ECCENTRICITY": 0.00245976, "INCLINATION": 74.0363, "RA_OF_ASC_NODE": 279.4958, "ARG_OF_PERICENTER": 353.0026, "MEAN_ANOMALY": 157.1903, "EPHEMERIS_TYPE": 0, "CLASSIFICATION_TYPE": "U", "NORAD_CAT_ID": 34818, "ELEMENT_SET_NO": 999, "REV_AT_EPOCH": 87506, "BSTAR": 0.00018981942, "MEAN_MOTION_DOT": 5.38e-06, "MEAN_MOTION_DDOT": 0}, "tle": {"line1": "1 34818U 93036ABH 25356.22651906  .00000538  00000+0  18982-3 0  9993", "line2": "2 34818  74.0363 279.4958 0024597 353.0026 157.1903 14.36978109875069"}}, "geometry": {"type": "Point", "coordinates": [86.67105122812961, 32.85051523430818]}}, {"type": "Feature", "properties": {"norad_id": 34819, "name": "COSMOS 2251 DEB", "group": "cosmos-2251-debris", "lat": 21.129864828040226, "lon": 128.5072433489745, "alt_km": 690.1226254834974, "timestamp": "2025-12-23T09:49:07.478206+00:00", "meta": {"OBJECT_NAME": "COSMOS 2251 DEB", "OBJECT_ID": "1993-036ABJ", "EPOCH": "2025-12-20T09:50:49.162272", "MEAN_MOTION": 14.64072467, "ECCENTRICITY": 0.00155371, "INCLINATION": 74.018, "RA_OF_ASC_NODE": 127.9117, "ARG_OF_PERICENTER": 222.8872, "MEAN_ANOMALY": 199.7592, "EPHEMERIS_TYPE": 0, "CLASSIFICATION_TYPE": "U", "NORAD_CAT_ID": 34819, "ELEMENT_SET_NO": 999, "REV_AT_EPOCH": 88341, "BSTAR": 0.001010903, "MEAN_MOTION_DOT": 5.289e-05, "MEAN_MOTION_DDOT": 0}, "tle": {"line1": "1 34819U 93036ABJ 25354.41029123  .00005289  00000+0  10109-2 0  9993", "line2": "2 34819  74.0180 127.9117 0015537 222.8872 199.7592 14.64072467883414"}}, "geometry": {"type": "Point", "coordinates": [128.5072433489745, 21.129864828040226]}}]}